[{"OBJECT_NAME":"STARLINK-36755","OBJECT_ID":"2026-026F","EPOCH":"2026-03-09T22:00:01.999584","MEAN_MOTION":15.49128002,"ECCENTRICITY":0.00016019,"INCLINATION":97.2848,"RA_OF_ASC_NODE":123.3997,"ARG_OF_PERICENTER":81.336,"MEAN_ANOMALY":252.8297,"EPHEMERIS_TYPE":0,"CLASSIFICATION_TYPE":"U","NORAD_CAT_ID":67726,"ELEMENT_SET_NO":999,"REV_AT_EPOCH":535,"BSTAR":0.0014087588,"MEAN_MOTION_DOT":0.00077118,"MEAN_MOTION_DDOT":0},{"OBJECT_NAME":"FENGYUN 1C DEB","OBJECT_ID":"1999-025AMU","EPOCH":"2026-03-09T13:46:16.276800","MEAN_MOTION":15.41895871,"ECCENTRICITY":0.0043781,"INCLINATION":98.2926,"RA_OF_ASC_NODE":203.1751,"ARG_OF_PERICENTER":231.7233,"MEAN_ANOMALY":128.007,"EPHEMERIS_TYPE":0,"CLASSIFICATION_TYPE":"U","NORAD_CAT_ID":30613,"ELEMENT_SET_NO":999,"REV_AT_EPOCH":717,"BSTAR":0.0052699,"MEAN_MOTION_DOT":0.00238104,"MEAN_MOTION_DDOT":0}]
